{
  "type": "FeatureCollection",
  "features": [
    {
      "type": "Feature",
      "properties": {
        "norad_id": 57400,
        "name": "TIANMU-1 08",
        "group": "weather",
        "lat": -16.960803762048577,
        "lon": 42.60974865601668,
        "alt_km": 486.36959078333166,
        "timestamp": "2025-12-16T19:34:23.908026+00:00",
        "meta_object_name": "TIANMU-1 08",
        "meta_object_id": "2023-101B",
        "meta_epoch": "2025-12-15T23:13:02.579808",
        "meta_mean_motion": 15.2810356,
        "meta_eccentricity": 0.0007454,
        "meta_inclination": 97.2869,
        "meta_ra_of_asc_node": 39.5437,
        "meta_arg_of_pericenter": 74.9703,
        "meta_mean_anomaly": 285.2362,
        "meta_ephemeris_type": 0,
        "meta_classification_type": "U",
        "meta_norad_cat_id": 57400,
        "meta_element_set_no": 999,
        "meta_rev_at_epoch": 13364,
        "meta_bstar": 0.00020560432,
        "meta_mean_motion_dot": 5.565e-05,
        "meta_mean_motion_ddot": 0,
        "tle_line1": "1 57400U 23101B   25349.96739097  .00005565  00000+0  20560-3 0  9992",
        "tle_line2": "2 57400  97.2869  39.5437 0007454  74.9703 285.2362 15.28103560133646"
      },
      "geometry": {
        "type": "Point",
        "coordinates": [
          42.60974865601668,
          -16.960803762048577
        ]
      }
    },
    {
      "type": "Feature",
      "properties": {
        "norad_id": 57401,
        "name": "TIANMU-1 09",
        "group": "weather",
        "lat": 55.42922469743741,
        "lon": 29.189536967157604,
        "alt_km": 471.7033435432786,
        "timestamp": "2025-12-16T19:34:23.908037+00:00",
        "meta_object_name": "TIANMU-1 09",
        "meta_object_id": "2023-101C",
        "meta_epoch": "2025-12-15T22:53:55.282848",
        "meta_mean_motion": 15.28134833,
        "meta_eccentricity": 0.00067071,
        "meta_inclination": 97.2825,
        "meta_ra_of_asc_node": 39.0424,
        "meta_arg_of_pericenter": 75.1717,
        "meta_mean_anomaly": 285.0266,
        "meta_ephemeris_type": 0,
        "meta_classification_type": "U",
        "meta_norad_cat_id": 57401,
        "meta_element_set_no": 999,
        "meta_rev_at_epoch": 13364,
        "meta_bstar": 0.00021764868,
        "meta_mean_motion_dot": 5.9e-05,
        "meta_mean_motion_ddot": 0,
        "tle_line1": "1 57401U 23101C   25349.95411207  .00005900  00000+0  21765-3 0  9993",
        "tle_line2": "2 57401  97.2825  39.0424 0006707  75.1717 285.0266 15.28134833133646"
      },
      "geometry": {
        "type": "Point",
        "coordinates": [
          29.189536967157604,
          55.42922469743741
        ]
      }
    },
    {
      "type": "Feature",
      "properties": {
        "norad_id": 57402,
        "name": "TIANMU-1 10",
        "group": "weather",
        "lat": -47.6064451890598,
        "lon": -147.32303482404012,
        "alt_km": 493.6014498750628,
        "timestamp": "2025-12-16T19:34:23.908047+00:00",
        "meta_object_name": "TIANMU-1 10",
        "meta_object_id": "2023-101D",
        "meta_epoch": "2025-12-15T22:08:55.212864",
        "meta_mean_motion": 15.28125262,
        "meta_eccentricity": 0.00084441,
        "meta_inclination": 97.2906,
        "meta_ra_of_asc_node": 39.8651,
        "meta_arg_of_pericenter": 74.2447,
        "meta_mean_anomaly": 285.9724,
        "meta_ephemeris_type": 0,
        "meta_classification_type": "U",
        "meta_norad_cat_id": 57402,
        "meta_element_set_no": 999,
        "meta_rev_at_epoch": 13363,
        "meta_bstar": 0.00020595743,
        "meta_mean_motion_dot": 5.579e-05,
        "meta_mean_motion_ddot": 0,
        "tle_line1": "1 57402U 23101D   25349.92286126  .00005579  00000+0  20596-3 0  9994",
        "tle_line2": "2 57402  97.2906  39.8651 0008444  74.2447 285.9724 15.28125262133630"
      },
      "geometry": {
        "type": "Point",
        "coordinates": [
          -147.32303482404012,
          -47.6064451890598
        ]
      }
    },
    {
      "type": "Feature",
      "properties": {
        "norad_id": 57490,
        "name": "FENGYUN 3F",
        "group": "weather",
        "lat": -17.370480368988314,
        "lon": 61.79098324356076,
        "alt_km": 830.8535371301132,
        "timestamp": "2025-12-16T19:34:23.908060+00:00",
        "meta_object_name": "FENGYUN 3F",
        "meta_object_id": "2023-111A",
        "meta_epoch": "2025-12-15T23:21:40.597920",
        "meta_mean_motion": 14.19894414,
        "meta_eccentricity": 6.906e-05,
        "meta_inclination": 98.708,
        "meta_ra_of_asc_node": 58.2146,
        "meta_arg_of_pericenter": 107.588,
        "meta_mean_anomaly": 252.5372,
        "meta_ephemeris_type": 0,
        "meta_classification_type": "U",
        "meta_norad_cat_id": 57490,
        "meta_element_set_no": 999,
        "meta_rev_at_epoch": 12286,
        "meta_bstar": 5.3724493e-05,
        "meta_mean_motion_dot": 7e-07,
        "meta_mean_motion_ddot": 0,
        "tle_line1": "1 57490U 23111A   25349.97338655  .00000070  00000+0  53724-4 0  9993",
        "tle_line2": "2 57490  98.7080  58.2146 0000690 107.5880 252.5372 14.19894414122869"
      },
      "geometry": {
        "type": "Point",
        "coordinates": [
          61.79098324356076,
          -17.370480368988314
        ]
      }
    },
    {
      "type": "Feature",
      "properties": {
        "norad_id": 58584,
        "name": "ARKTIKA-M 2",
        "group": "weather",
        "lat": -1.0907255779029843,
        "lon": 173.88628024795204,
        "alt_km": 7794.170770305415,
        "timestamp": "2025-12-16T19:34:23.908072+00:00",
        "meta_object_name": "ARKTIKA-M 2",
        "meta_object_id": "2023-198A",
        "meta_epoch": "2025-12-15T07:41:54.278304",
        "meta_mean_motion": 2.00603484,
        "meta_eccentricity": 0.68650912,
        "meta_inclination": 63.2249,
        "meta_ra_of_asc_node": 174.6089,
        "meta_arg_of_pericenter": 268.096,
        "meta_mean_anomaly": 18.8351,
        "meta_ephemeris_type": 0,
        "meta_classification_type": "U",
        "meta_norad_cat_id": 58584,
        "meta_element_set_no": 999,
        "meta_rev_at_epoch": 1463,
        "meta_bstar": 0,
        "meta_mean_motion_dot": 2.02e-06,
        "meta_mean_motion_ddot": 0,
        "tle_line1": "1 58584U 23198A   25349.32076711  .00000202  00000+0  00000+0 0  9995",
        "tle_line2": "2 58584  63.2249 174.6089 6865091 268.0960  18.8351  2.00603484 14636"
      },
      "geometry": {
        "type": "Point",
        "coordinates": [
          173.88628024795204,
          -1.0907255779029843
        ]
      }
    },
    {
      "type": "Feature",
      "properties": {
        "norad_id": 58645,
        "name": "TIANMU-1 11",
        "group": "weather",
        "lat": -3.888816748103226,
        "lon": 10.871142607572937,
        "alt_km": 492.9581321295118,
        "timestamp": "2025-12-16T19:34:23.908086+00:00",
        "meta_object_name": "TIANMU-1 11",
        "meta_object_id": "2023-205A",
        "meta_epoch": "2025-12-16T00:41:19.256640",
        "meta_mean_motion": 15.2464174,
        "meta_eccentricity": 0.00077011,
        "meta_inclination": 97.3606,
        "meta_ra_of_asc_node": 9.5945,
        "meta_arg_of_pericenter": 296.7792,
        "meta_mean_anomaly": 63.2657,
        "meta_ephemeris_type": 0,
        "meta_classification_type": "U",
        "meta_norad_cat_id": 58645,
        "meta_element_set_no": 999,
        "meta_rev_at_epoch": 10959,
        "meta_bstar": 0.00019331526,
        "meta_mean_motion_dot": 4.704e-05,
        "meta_mean_motion_ddot": 0,
        "tle_line1": "1 58645U 23205A   25350.02869510  .00004704  00000+0  19332-3 0  9991",
        "tle_line2": "2 58645  97.3606   9.5945 0007701 296.7792  63.2657 15.24641740109597"
      },
      "geometry": {
        "type": "Point",
        "coordinates": [
          10.871142607572937,
          -3.888816748103226
        ]
      }
    },
    {
      "type": "Feature",
      "properties": {
        "norad_id": 58646,
        "name": "TIANMU-1 12",
        "group": "weather",
        "lat": -26.447515020624135,
        "lon": -173.51434090170596,
        "alt_km": 496.4272293580216,
        "timestamp": "2025-12-16T19:34:23.908097+00:00",
        "meta_object_name": "TIANMU-1 12",
        "meta_object_id": "2023-205B",
        "meta_epoch": "2025-12-15T23:45:58.292064",
        "meta_mean_motion": 15.24525741,
        "meta_eccentricity": 0.00057916,
        "meta_inclination": 97.3593,
        "meta_ra_of_asc_node": 9.3612,
        "meta_arg_of_pericenter": 276.5298,
        "meta_mean_anomaly": 83.528,
        "meta_ephemeris_type": 0,
        "meta_classification_type": "U",
        "meta_norad_cat_id": 58646,
        "meta_element_set_no": 999,
        "meta_rev_at_epoch": 10957,
        "meta_bstar": 0.00020348665,
        "meta_mean_motion_dot": 4.937e-05,
        "meta_mean_motion_ddot": 0,
        "tle_line1": "1 58646U 23205B   25349.99025801  .00004937  00000+0  20349-3 0  9991",
        "tle_line2": "2 58646  97.3593   9.3612 0005791 276.5298  83.5280 15.24525741109573"
      },
      "geometry": {
        "type": "Point",
        "coordinates": [
          -173.51434090170596,
          -26.447515020624135
        ]
      }
    }
  ]
}